start=new Date('2022-01-16T00:00:00.000Z').valueOf();
sats=[{"TLE_LINE2":"2 45405  53.0539  93.0399 0001551 117.0339 243.0809 15.06398761101671","INCLINATION":"53.0539","PERIAPSIS":"546.143","CLASSIFICATION_TYPE":"U","MEAN_MOTION":"15.06398761","SITE":"AFETR","OBJECT_ID":"2020-019AX","ELEMENT_SET_NO":"999","GP_ID":"193945110","MEAN_ANOMALY":"243.0809","OBJECT_NAME":"STARLINK-1263","RCS_SIZE":"LARGE","COUNTRY_CODE":"US","EPHEMERIS_TYPE":"0","MEAN_ELEMENT_THEORY":"SGP4","ARG_OF_PERICENTER":"117.0339","CENTER_NAME":"EARTH","REF_FRAME":"TEME","DECAY_DATE":null,"REV_AT_EPOCH":"10167","LAUNCH_DATE":"2020-03-18","APOAPSIS":"548.291","MEAN_MOTION_DOT":"0.00003624","RA_OF_ASC_NODE":"93.0399","TLE_LINE1":"1 45405U 20019AX  22015.73209523  .00003624  00000-0  26208-3 0  9997","BSTAR":"0.00026208000000","OBJECT_TYPE":"PAYLOAD","ECCENTRICITY":"0.00015510","SEMIMAJOR_AXIS":"6925.352","NORAD_CAT_ID":"45405","EPOCH":"2022-01-15T17:34:13.027872","MEAN_MOTION_DDOT":"0.0000000000000","FILE":"3274074","PERIOD":"95.592","TIME_SYSTEM":"UTC"},{"PERIAPSIS":"546.276","INCLINATION":"53.0545","TLE_LINE2":"2 45406  53.0545  94.1874 0001327  95.9944 264.1197 15.06405995101634","ELEMENT_SET_NO":"999","OBJECT_ID":"2020-019AY","SITE":"AFETR","MEAN_MOTION":"15.06405995","CLASSIFICATION_TYPE":"U","MEAN_ANOMALY":"264.1197","GP_ID":"193914234","EPHEMERIS_TYPE":"0","COUNTRY_CODE":"US","RCS_SIZE":"LARGE","OBJECT_NAME":"STARLINK-1265","REF_FRAME":"TEME","DECAY_DATE":null,"CENTER_NAME":"EARTH","ARG_OF_PERICENTER":"95.9944","MEAN_ELEMENT_THEORY":"SGP4","BSTAR":"0.00012793000000","TLE_LINE1":"1 45406U 20019AY  22015.47408308  .00001625  00000-0  12793-3 0  9994","RA_OF_ASC_NODE":"94.1874","MEAN_MOTION_DOT":"0.00001625","LAUNCH_DATE":"2020-03-18","APOAPSIS":"548.114","REV_AT_EPOCH":"10163","EPOCH":"2022-01-15T11:22:40.778112","SEMIMAJOR_AXIS":"6925.330","NORAD_CAT_ID":"45406","ECCENTRICITY":"0.00013270","OBJECT_TYPE":"PAYLOAD","TIME_SYSTEM":"UTC","PERIOD":"95.592","MEAN_MOTION_DDOT":"0.0000000000000","FILE":"3273762"},{"MEAN_ELEMENT_THEORY":"SGP4","ARG_OF_PERICENTER":"98.0347","CENTER_NAME":"EARTH","REF_FRAME":"TEME","DECAY_DATE":null,"REV_AT_EPOCH":"10164","TLE_LINE1":"1 45407U 20019AZ  22015.55422683  .00000896  00000-0  79031-4 0  9994","BSTAR":"0.00007903100000","MEAN_MOTION_DOT":"0.00000896","LAUNCH_DATE":"2020-03-18","APOAPSIS":"548.072","RA_OF_ASC_NODE":"93.8336","NORAD_CAT_ID":"45407","SEMIMAJOR_AXIS":"6925.344","EPOCH":"2022-01-15T13:18:05.198112","OBJECT_TYPE":"PAYLOAD","ECCENTRICITY":"0.00012450","FILE":"3273919","MEAN_MOTION_DDOT":"0.0000000000000","PERIOD":"95.592","TIME_SYSTEM":"UTC","TLE_LINE2":"2 45407  53.0554  93.8336 0001245  98.0347 262.0783 15.06401332101644","INCLINATION":"53.0554","PERIAPSIS":"546.347","SITE":"AFETR","OBJECT_ID":"2020-019AZ","CLASSIFICATION_TYPE":"U","MEAN_MOTION":"15.06401332","ELEMENT_SET_NO":"999","GP_ID":"193922383","MEAN_ANOMALY":"262.0783","RCS_SIZE":"LARGE","OBJECT_NAME":"STARLINK-1275","COUNTRY_CODE":"US","EPHEMERIS_TYPE":"0"},{"TLE_LINE2":"2 45408  53.0533 122.8810 0001328  87.3873 272.7268 15.06410339101260","INCLINATION":"53.0533","PERIAPSIS":"546.262","CLASSIFICATION_TYPE":"U","MEAN_MOTION":"15.06410339","SITE":"AFETR","OBJECT_ID":"2020-019BA","ELEMENT_SET_NO":"999","GP_ID":"193944361","MEAN_ANOMALY":"272.7268","OBJECT_NAME":"STARLINK-1278","RCS_SIZE":"LARGE","COUNTRY_CODE":"US","EPHEMERIS_TYPE":"0","MEAN_ELEMENT_THEORY":"SGP4","ARG_OF_PERICENTER":"87.3873","CENTER_NAME":"EARTH","DECAY_DATE":null,"REF_FRAME":"TEME","REV_AT_EPOCH":"10126","LAUNCH_DATE":"2020-03-18","MEAN_MOTION_DOT":"0.00000408","APOAPSIS":"548.102","RA_OF_ASC_NODE":"122.8810","TLE_LINE1":"1 45408U 20019BA  22015.76618363  .00000408  00000-0  46299-4 0  9999","BSTAR":"0.00004629900000","OBJECT_TYPE":"PAYLOAD","ECCENTRICITY":"0.00013280","SEMIMAJOR_AXIS":"6925.317","NORAD_CAT_ID":"45408","EPOCH":"2022-01-15T18:23:18.265632","MEAN_MOTION_DDOT":"0.0000000000000","FILE":"3274074","PERIOD":"95.591","TIME_SYSTEM":"UTC"},{"ECCENTRICITY":"0.00010960","OBJECT_TYPE":"PAYLOAD","EPOCH":"2022-01-15T16:41:08.537280","SEMIMAJOR_AXIS":"6925.359","NORAD_CAT_ID":"45409","TIME_SYSTEM":"UTC","PERIOD":"95.592","MEAN_MOTION_DDOT":"0.0000000000000","FILE":"3274074","REF_FRAME":"TEME","DECAY_DATE":null,"CENTER_NAME":"EARTH","ARG_OF_PERICENTER":"89.4171","MEAN_ELEMENT_THEORY":"SGP4","RA_OF_ASC_NODE":"93.2047","MEAN_MOTION_DOT":"0.00000947","LAUNCH_DATE":"2020-03-18","APOAPSIS":"547.983","BSTAR":"0.00008246200000","TLE_LINE1":"1 45409U 20019BB  22015.69523770  .00000947  00000-0  82462-4 0  9999","REV_AT_EPOCH":"10167","MEAN_ANOMALY":"270.6944","GP_ID":"193944611","EPHEMERIS_TYPE":"0","COUNTRY_CODE":"US","OBJECT_NAME":"STARLINK-1282","RCS_SIZE":"LARGE","PERIAPSIS":"546.465","INCLINATION":"53.0539","TLE_LINE2":"2 45409  53.0539  93.2047 0001096  89.4171 270.6944 15.06396437101671","ELEMENT_SET_NO":"999","MEAN_MOTION":"15.06396437","CLASSIFICATION_TYPE":"U","SITE":"AFETR","OBJECT_ID":"2020-019BB"},{"OBJECT_NAME":"STARLINK-1285","RCS_SIZE":"LARGE","EPHEMERIS_TYPE":"0","COUNTRY_CODE":"US","GP_ID":"193945861","MEAN_ANOMALY":"63.8602","MEAN_MOTION":"15.76543806","CLASSIFICATION_TYPE":"U","SITE":"AFETR","OBJECT_ID":"2020-019BC","ELEMENT_SET_NO":"999","INCLINATION":"53.0536","TLE_LINE2":"2 45410  53.0536   0.4070 0004962 296.1907  63.8602 15.76543806102951","PERIAPSIS":"336.910","PERIOD":"91.339","MEAN_MOTION_DDOT":"0.0000000000000","FILE":"3274074","TIME_SYSTEM":"UTC","ECCENTRICITY":"0.00049620","OBJECT_TYPE":"PAYLOAD","EPOCH":"2022-01-15T16:16:05.566080","SEMIMAJOR_AXIS":"6718.379","NORAD_CAT_ID":"45410","REV_AT_EPOCH":"10295","RA_OF_ASC_NODE":"0.4070","LAUNCH_DATE":"2020-03-18","MEAN_MOTION_DOT":"0.00202380","APOAPSIS":"343.577","BSTAR":"0.00122050000000","TLE_LINE1":"1 45410U 20019BC  22015.67784220  .00202380  00000-0  12205-2 0  9999","ARG_OF_PERICENTER":"296.1907","MEAN_ELEMENT_THEORY":"SGP4","DECAY_DATE":null,"REF_FRAME":"TEME","CENTER_NAME":"EARTH"},{"MEAN_ELEMENT_THEORY":"SGP4","ARG_OF_PERICENTER":"95.7633","CENTER_NAME":"EARTH","REF_FRAME":"TEME","DECAY_DATE":null,"REV_AT_EPOCH":"10168","LAUNCH_DATE":"2020-03-18","APOAPSIS":"548.086","MEAN_MOTION_DOT":"0.00001451","RA_OF_ASC_NODE":"93.4280","TLE_LINE1":"1 45411U 20019BD  22015.64363750  .00001451  00000-0  11627-3 0  9992","BSTAR":"0.00011627000000","OBJECT_TYPE":"PAYLOAD","ECCENTRICITY":"0.00012460","NORAD_CAT_ID":"45411","SEMIMAJOR_AXIS":"6925.358","EPOCH":"2022-01-15T15:26:50.280000","MEAN_MOTION_DDOT":"0.0000000000000","FILE":"3274074","PERIOD":"95.592","TIME_SYSTEM":"UTC","TLE_LINE2":"2 45411  53.0546  93.4280 0001246  95.7633 264.3498 15.06396760101687","INCLINATION":"53.0546","PERIAPSIS":"546.361","CLASSIFICATION_TYPE":"U","MEAN_MOTION":"15.06396760","OBJECT_ID":"2020-019BD","SITE":"AFETR","ELEMENT_SET_NO":"999","GP_ID":"193945607","MEAN_ANOMALY":"264.3498","OBJECT_NAME":"STARLINK-1293","RCS_SIZE":"LARGE","COUNTRY_CODE":"US","EPHEMERIS_TYPE":"0"},{"ELEMENT_SET_NO":"999","MEAN_MOTION":"15.06410339","CLASSIFICATION_TYPE":"U","OBJECT_ID":"2020-019BE","SITE":"AFETR","PERIAPSIS":"546.361","INCLINATION":"53.0557","TLE_LINE2":"2 45412  53.0557  93.8946 0001186  93.6388 266.4737 15.06410339101644","EPHEMERIS_TYPE":"0","COUNTRY_CODE":"US","OBJECT_NAME":"STARLINK-1296","RCS_SIZE":"LARGE","MEAN_ANOMALY":"266.4737","GP_ID":"193913233","RA_OF_ASC_NODE":"93.8946","LAUNCH_DATE":"2020-03-18","APOAPSIS":"548.003","MEAN_MOTION_DOT":"0.00000808","BSTAR":"0.00007312400000","TLE_LINE1":"1 45412U 20019BE  22015.54411190  .00000808  00000-0  73124-4 0  9990","REV_AT_EPOCH":"10164","DECAY_DATE":null,"REF_FRAME":"TEME","CENTER_NAME":"EARTH","ARG_OF_PERICENTER":"93.6388","MEAN_ELEMENT_THEORY":"SGP4","TIME_SYSTEM":"UTC","PERIOD":"95.591","FILE":"3273762","MEAN_MOTION_DDOT":"0.0000000000000","ECCENTRICITY":"0.00011860","OBJECT_TYPE":"PAYLOAD","EPOCH":"2022-01-15T13:03:31.268160","NORAD_CAT_ID":"45412","SEMIMAJOR_AXIS":"6925.317"},{"COUNTRY_CODE":"US","EPHEMERIS_TYPE":"0","RCS_SIZE":"LARGE","OBJECT_NAME":"STARLINK-1298","MEAN_ANOMALY":"262.4317","GP_ID":"193945111","ELEMENT_SET_NO":"999","SITE":"AFETR","OBJECT_ID":"2020-019BF","CLASSIFICATION_TYPE":"U","MEAN_MOTION":"15.06397670","PERIAPSIS":"546.376","TLE_LINE2":"2 45413  53.0541  93.1587 0001220  97.6810 262.4317 15.06397670101760","INCLINATION":"53.0541","TIME_SYSTEM":"UTC","FILE":"3274074","MEAN_MOTION_DDOT":"0.0000000000000","PERIOD":"95.592","NORAD_CAT_ID":"45413","SEMIMAJOR_AXIS":"6925.356","EPOCH":"2022-01-15T16:57:04.056480","OBJECT_TYPE":"PAYLOAD","ECCENTRICITY":"0.00012200","TLE_LINE1":"1 45413U 20019BF  22015.70629695  .00001313  00000-0  10705-3 0  9997","BSTAR":"0.00010705000000","APOAPSIS":"548.066","LAUNCH_DATE":"2020-03-18","MEAN_MOTION_DOT":"0.00001313","RA_OF_ASC_NODE":"93.1587","REV_AT_EPOCH":"10176","CENTER_NAME":"EARTH","DECAY_DATE":null,"REF_FRAME":"TEME","MEAN_ELEMENT_THEORY":"SGP4","ARG_OF_PERICENTER":"97.6810"},{"MEAN_ANOMALY":"249.7320","GP_ID":"193914235","EPHEMERIS_TYPE":"0","COUNTRY_CODE":"US","RCS_SIZE":"LARGE","OBJECT_NAME":"STARLINK-1309","PERIAPSIS":"546.271","INCLINATION":"53.0538","TLE_LINE2":"2 45414  53.0538  93.8188 0001374 110.3816 249.7320 15.06396938101634","ELEMENT_SET_NO":"999","OBJECT_ID":"2020-019BG","SITE":"AFETR","MEAN_MOTION":"15.06396938","CLASSIFICATION_TYPE":"U","EPOCH":"2022-01-15T13:24:45.308736","NORAD_CAT_ID":"45414","SEMIMAJOR_AXIS":"6925.358","ECCENTRICITY":"0.00013740","OBJECT_TYPE":"PAYLOAD","TIME_SYSTEM":"UTC","PERIOD":"95.592","MEAN_MOTION_DDOT":"0.0000000000000","FILE":"3273762","DECAY_DATE":null,"REF_FRAME":"TEME","CENTER_NAME":"EARTH","ARG_OF_PERICENTER":"110.3816","MEAN_ELEMENT_THEORY":"SGP4","BSTAR":"0.00007641500000","TLE_LINE1":"1 45414U 20019BG  22015.55885774  .00000857  00000-0  76415-4 0  9996","RA_OF_ASC_NODE":"93.8188","APOAPSIS":"548.174","LAUNCH_DATE":"2020-03-18","MEAN_MOTION_DOT":"0.00000857","REV_AT_EPOCH":"10163"}];
